IRIDIUM 106             
1 41917U 17003A   24225.41066439  .00001111  00000+0  38962-3 0  9995
2 41917  86.3997  10.0823 0001926  82.0187 278.1227 14.34225340396638
IRIDIUM 103             
1 41918U 17003B   24225.46775116  .00000954  00000+0  33352-3 0  9992
2 41918  86.3999   9.9604 0002504  88.8723 271.2760 14.34224283396662
IRIDIUM 109             
1 41919U 17003C   24225.47409679  .00001624  00000+0  57260-3 0  9991
2 41919  86.4000  10.0059 0002447  98.6255 261.5218 14.34221550396630
IRIDIUM 102             
1 41920U 17003D   24225.44238403  .00000397  00000+0  13479-3 0  9995
2 41920  86.4001   9.9569 0002110  97.6578 262.4857 14.34219311396710
IRIDIUM 105             
1 41921U 17003E   24225.34331829  .00001177  00000+0  41301-3 0  9993
2 41921  86.4019 338.4506 0002300  90.1940 269.9519 14.34233667398554
IRIDIUM 104             
1 41922U 17003F   24225.38530076  .00000176  00000+0  55722-4 0  9994
2 41922  86.3994  10.0124 0002443  94.2786 265.8689 14.34216230396699
IRIDIUM 114             
1 41923U 17003G   24225.39164865  .00000336  00000+0  11303-3 0  9999
2 41923  86.3999   9.9964 0002052  88.4194 271.7237 14.34214856396673
IRIDIUM 108             
1 41924U 17003H   24225.35016468  .00000058  00000+0  13749-4 0  9999
2 41924  86.3987 338.3653 0001821  70.4117 289.7275 14.34219273398529
